ARIANE 5 R/B            
1 53766U 22110B   22271.12750312  .00000532  00000+0  98140-3 0  9992
2 53766   3.3038 146.4757 8153001 177.7450 193.1837  1.26386387   263
1998-067UE              
1 53767U 98067UE  22271.70476132  .00033693  00000+0  55040-3 0  9992
2 53767  51.6415 183.5013 0002801 351.0070   9.0869 15.52231767  3475
BEAVERCUBE              
1 53768U 98067UF  22271.38478751  .00036966  00000+0  60633-3 0  9996
2 53768  51.6410 185.1137 0000712  18.2821 341.8194 15.52074830  3431
CLICK-A                 
1 53769U 98067UG  22272.15435486  .00055038  00000+0  87772-3 0  9995
2 53769  51.6425 181.2560 0000888 329.7486  30.3452 15.52680186  3553
1998-067UH              
1 53770U 98067UH  22272.14830400  .00057545  00000+0  89566-3 0  9999
2 53770  51.6421 181.2112 0001913 325.5367  34.5499 15.53334032  3550
JAGSAT                  
1 53771U 98067UJ  22271.56791070  .00061220  00000+0  94849-3 0  9999
2 53771  51.6412 184.0884 0001961 327.7846  32.3024 15.53434530  3450
STARLINK-4718           
1 53773U 22111A   22272.25001157  .00071290  00000+0  51148-3 0  9998
2 53773  53.2153 177.0877 0000861 126.4979 124.9282 15.73042901  2794
STARLINK-4719           
1 53774U 22111B   22272.25001157  .00088350  00000+0  63083-3 0  9995
2 53774  53.2157 177.0869 0001229 113.7505 138.2659 15.73069088  2794
STARLINK-4722           
1 53775U 22111C   22272.25001157  .00062933  00000+0  45196-3 0  9990
2 53775  53.2156 177.0821 0001211 111.6574 142.1549 15.73070303  2790
STARLINK-4708           
1 53776U 22111D   22272.25001157  .00056221  00000+0  40445-3 0  9996
2 53776  53.2156 177.0853 0000663 140.6594 111.9757 15.73075955  2793
STARLINK-4664           
1 53777U 22111E   22271.91667824 -.00125846  00000+0 -90506-3 0  9993
2 53777  53.2159 178.7294 0001184 120.1461  45.9455 15.73216939  1305
STARLINK-4709           
1 53778U 22111F   22272.25001157  .00087463  00000+0  62382-3 0  9994
2 53778  53.2152 177.0840 0001302 109.8334 143.3867 15.73098443  2795
STARLINK-4706           
1 53779U 22111G   22272.25001157  .00078043  00000+0  55918-3 0  9996
2 53779  53.2159 177.0793 0000932 127.9405 127.6617 15.73038062  2797
STARLINK-4678           
1 53780U 22111H   22272.25001157 -.00252340  00000+0 -18426-2 0  9996
2 53780  53.2169 177.0821 0001339 137.3095 117.7064 15.73267204  2792
STARLINK-4462           
1 53781U 22111J   22271.91667824 -.00181538  00000+0 -13081-2 0  9990
2 53781  53.2176 178.7251 0001847 142.2538  26.5410 15.73358059  1304
STARLINK-4679           
1 53782U 22111K   22271.91667824 -.00141933  00000+0 -10172-2 0  9994
2 53782  53.2174 178.7272 0001559 147.3043  20.2656 15.73354231  1304
STARLINK-4536           
1 53783U 22111L   22272.25001157  .00091809  00000+0  65433-3 0  9999
2 53783  53.2170 177.0748 0000894 140.2258 118.3641 15.73096196  2792
STARLINK-4687           
1 53784U 22111M   22271.91667824 -.00123014  00000+0 -87935-3 0  9998
2 53784  53.2171 178.7255 0001581 145.3217  22.8293 15.73346139  1303
STARLINK-4638           
1 53785U 22111N   22272.25001157  .00139885  00000+0  61060-3 0  9990
2 53785  53.2028 176.1096 0006482 316.4967  46.2722 15.83801528  2800
STARLINK-4631           
1 53786U 22111P   22271.91667824 -.00175874  00000+0 -12746-2 0  9998
2 53786  53.2163 178.7227 0001435 132.0483  37.0578 15.73207724  1301
STARLINK-4743           
1 53787U 22111Q   22272.25001157  .00053061  00000+0  38177-3 0  9996
2 53787  53.2171 177.0689 0001415 151.6764 109.2738 15.73096709  2795
STARLINK-4744           
1 53788U 22111R   22272.25001157  .00133346  00000+0  58066-3 0  9991
2 53788  53.2030 176.1071 0006484 316.0509  48.0118 15.83873304  2809
STARLINK-4666           
1 53789U 22111S   22272.25001157  .00091060  00000+0  65343-3 0  9994
2 53789  53.2166 177.0671 0001061  56.4200 205.5027 15.72939653  2790
STARLINK-4734           
1 53790U 22111T   22272.25001157  .00142790  00000+0  10069-2 0  9997
2 53790  53.2166 177.0703 0000940 111.3404 149.2885 15.73146710  2791
STARLINK U              
1 53791U 22111U   22272.12316145  .00095615  00000+0  41963-3 0  9991
2 53791  53.2037 176.7425 0005651 296.7022  63.3424 15.83851667  2862
STARLINK-4739           
1 53792U 22111V   22271.91667824 -.00080706  00000+0 -57375-3 0  9992
2 53792  53.2172 178.7166 0001746 143.6060  29.0722 15.73295259  1306
STARLINK-4728           
1 53793U 22111W   22271.91667824 -.00203770  00000+0 -14805-2 0  9991
2 53793  53.2176 178.7132 0001096 102.9899  71.4616 15.73238111  1307
STARLINK-4730           
1 53794U 22111X   22271.91667824 -.00122717  00000+0 -88222-3 0  9998
2 53794  53.2166 178.7132 0001161 115.4057  58.4286 15.73214351  1303
STARLINK-4742           
1 53795U 22111Y   22271.91667824 -.00103456  00000+0 -73771-3 0  9991
2 53795  53.2171 178.7121 0001967 143.2765  31.7609 15.73326380  1306
STARLINK Z              
1 53796U 22111Z   22272.12233414  .00112895  00000+0  49116-3 0  9991
2 53796  53.2035 176.7382 0006184 315.9270  44.1262 15.83965053  2860
STARLINK-4723           
1 53797U 22111AA  22272.25001157  .00055301  00000+0  39817-3 0  9998
2 53797  53.2172 177.0612 0000454  90.9841 174.1881 15.73062976  2795
STARLINK-4712           
1 53798U 22111AB  22272.25001157 -.00021864  00000+0 -15181-3 0  9996
2 53798  53.2158 177.0615 0001065  97.6331 166.7428 15.73194158  2781
STARLINK-4710           
1 53799U 22111AC  22271.91667824 -.00116704  00000+0 -83811-3 0  9991
2 53799  53.2176 178.7076 0001025 107.0071  70.3737 15.73216711  1304
STARLINK-4720           
1 53800U 22111AD  22271.91667824 -.00123515  00000+0 -88851-3 0  9991
2 53800  53.2178 178.7083 0001071 102.7859  74.0698 15.73203100  1309
STARLINK-4715           
1 53801U 22111AE  22272.25001157  .00136151  00000+0  96668-3 0  9994
2 53801  53.2163 177.0558 0000716  90.1742 177.3585 15.73009600  2783
STARLINK-4726           
1 53802U 22111AF  22271.91667824 -.00122031  00000+0 -87708-3 0  9995
2 53802  53.2172 178.7056 0000931 102.8158  75.1983 15.73218076  1309
STARLINK-4727           
1 53803U 22111AG  22272.25001157  .00053626  00000+0  38592-3 0  9993
2 53803  53.2159 177.0525 0000737  94.8186 173.8247 15.73087377  2783
STARLINK-4729           
1 53804U 22111AH  22271.91667824 -.00120645  00000+0 -86748-3 0  9999
2 53804  53.2169 178.7025 0001227 109.7984  69.4338 15.73202234  1304
STARLINK-4763           
1 53805U 22111AJ  22271.91667824 -.00150839  00000+0 -10897-2 0  9999
2 53805  53.2165 178.6994 0001097 108.0066  72.4382 15.73200378  1303
STARLINK-4768           
1 53806U 22111AK  22272.25001157  .00035206  00000+0  25549-3 0  9998
2 53806  53.2175 177.0520 0001120  96.0381 173.8636 15.73081905  2780
BLUEWALKER-3            
1 53807U 22111AL  22272.15358855  .00001927  00000+0  10797-3 0  9990
2 53807  53.2012 184.8459 0012305 346.0704  13.9951 15.18350953  2765
FALCON 9 DEB            
1 53808U 22111AM  22271.78766869  .00286835  00000+0  10085-2 0  9999
2 53808  53.2033 178.1958 0006256 284.0050  76.0281 15.87871799  2816
FALCON 9 DEB            
1 53809U 22111AN  22272.04568992  .00165422  00000+0  65247-3 0  9996
2 53809  53.2012 176.9631 0005825 329.4461  30.6225 15.85845475  3904
FALCON 9 DEB            
1 53810U 22111AP  22272.10268615  .00174268  00000+0  66116-3 0  9998
2 53810  53.2011 176.6036 0008826 322.0880  37.9523 15.86586711  2860
FALCON 9 DEB            
1 53811U 22111AQ  22271.99792416  .00164142  00000+0  69434-3 0  9992
2 53811  53.1967 177.3781 0005357 278.7765  81.2653 15.84396686  2842
FALCON 9 DEB            
1 53812U 22111AR  22272.12347961  .00123205  00000+0  53211-3 0  9991
2 53812  53.1987 176.7408 0007475 294.1722  65.8521 15.84069806  2867
CHINASAT 1E (ZX 1E)     
1 53813U 22112A   22271.55218344 -.00000147  00000+0  00000+0 0  9995
2 53813   1.4885 280.2473 0002520 250.5427 116.7234  1.00271479   249
CZ-7A R/B               
1 53814U 22112B   22271.48551843  .12436359  37052-4  53487-2 0  9994
2 53814  13.9255 205.6605 6675946 187.1733 153.6033  3.18733824   364
STRIX-1                 
1 53815U 22113A   22272.16481144  .00003600  00000+0  29480-3 0  9999
2 53815  97.6594 322.8863 0012108 255.2204 104.7721 14.99874028  1991
ELECTRON R/B            
1 53816U 22113B   22271.14747873  .22655063  20725-5  28177-3 0  9995
2 53816  97.6159 323.5414 0043231 193.2727 225.4717 16.44938793  1944
ELECTRON KICK STAGE R/B 
1 53817U 22113C   22272.09450957  .00004283  00000+0  34597-3 0  9994
2 53817  97.6577 322.8246 0012845 250.8090 109.1745 15.00287357  1981
STARLINK-4749           
1 53818U 22114A   22272.25001157 -.00127321  00000+0 -91321-3 0  9997
2 53818  53.2175 208.2982 0001247  54.0948 138.6755 15.73284843  2186
STARLINK-4738           
1 53819U 22114B   22272.25001157 -.00247777  00000+0 -18005-2 0  9993
2 53819  53.2174 208.2914 0001904 278.5717 277.1394 15.73364264  2182
STARLINK-4758           
1 53820U 22114C   22272.25001157 -.00131512  00000+0 -94377-3 0  9991
2 53820  53.2175 208.2971 0001324  59.0668 134.2985 15.73287280  2182
STARLINK-4752           
1 53821U 22114D   22272.25001157 -.00178109  00000+0 -12851-2 0  9991
2 53821  53.2175 208.2929 0001343  60.7686 134.3694 15.73318191  2180
STARLINK-4713           
1 53822U 22114E   22272.19025842  .00559297  11456-4  61229-3 0  9997
2 53822  53.2150 207.5401 0061411  81.7665 279.0327 16.05074521  2185
STARLINK-4748           
1 53823U 22114F   22271.91667824  .00128114  16810-4  48310-3 0  9994
2 53823  53.2144 209.3824 0019056  76.5732 297.0930 15.87307785  1306
STARLINK-4757           
1 53824U 22114G   22272.25001157 -.00015429  00000+0 -10565-3 0  9990
2 53824  53.2176 208.2907 0001314  70.3727 126.6039 15.73214192  2184
STARLINK-4751           
1 53825U 22114H   22272.25001157 -.00203837  00000+0 -14747-2 0  9998
2 53825  53.2175 208.2907 0001250  59.9843 136.3352 15.73336703  2184
